IRIDIUM 106             
1 41917U 17003A   25364.95335955  .00000076  00000+0  19908-4 0  9990
2 41917  86.3997 158.8499 0002456  92.1353 268.0124 14.34218042469090
IRIDIUM 103             
1 41918U 17003B   25365.14997507  .00000542  00000+0  18657-3 0  9997
2 41918  86.4003 158.6682 0001968 105.9818 254.1594 14.34221535469142
IRIDIUM 109             
1 41919U 17003C   25364.94701579 -.00000009  00000+0 -10188-4 0  9999
2 41919  86.4005 158.8098 0001866  96.3692 263.7716 14.34217662469089
IRIDIUM 102             
1 41920U 17003D   25364.98507031  .00000184  00000+0  58597-4 0  9990
2 41920  86.3999 158.7210 0001930  91.4099 268.7318 14.34218686469176
IRIDIUM 105             
1 41921U 17003E   25365.09534076  .00000580  00000+0  19987-3 0  9992
2 41921  86.3993 127.1656 0002033  97.9456 262.1970 14.34223412471042
IRIDIUM 104             
1 41922U 17003F   25364.92798725  .00000067  00000+0  16764-4 0  9998
2 41922  86.4003 158.7851 0001710 100.4633 259.6755 14.34218071469157
IRIDIUM 114             
1 41923U 17003G   25364.93433031  .00000389  00000+0  13187-3 0  9998
2 41923  86.4003 158.7663 0001833  98.8314 261.3089 14.34217727469136
IRIDIUM 108             
1 41924U 17003H   25365.10215796  .00000030  00000+0  36971-5 0  9996
2 41924  86.3986 127.0515 0002031  91.1891 268.9538 14.34217784471013
